[Satellite]
VERSION=1.1
NAME=GSAT0217 (PRN E27)
NICKNAME=GSAT0217 (PRN E27)
TLE1=1 43057U 17079C   18020.65160411 -.00000029  00000-0  00000-0 0  9990
TLE2=2 43057  56.9884 305.8283 0002021 352.5979  81.7423  1.71673182   668
